{"type": "FeatureCollection", "features": [ {"type": "Feature", "properties": {"norad_id": 58662, "name": "TIANMU-1 21", "group": "weather", "lat": 17.908784337426066, "lon": -65.82223569422095, "alt_km": 468.18601469578516, "timestamp": "2025-12-24T07:45:05.842262+00:00", "meta": {"OBJECT_NAME": "TIANMU-1 21", "OBJECT_ID": "2023-208C", "EPOCH": "2025-12-23T23:12:28.672128", "MEAN_MOTION": 15.31782357, "ECCENTRICITY": 0.00063921, "INCLINATION": 97.4379, "RA_OF_ASC_NODE": 111.4008, "ARG_OF_PERICENTER": 213.5794, "MEAN_ANOMALY": 146.5043, "EPHEMERIS_TYPE": 0, "CLASSIFICATION_TYPE": "U", "NORAD_CAT_ID": 58662, "ELEMENT_SET_NO": 999, "REV_AT_EPOCH": 11071, "BSTAR": 0.00035409706, "MEAN_MOTION_DOT": 0.00010798, "MEAN_MOTION_DDOT": 0}, "tle": {"line1": "1 58662U 23208C   25357.96699852  .00010798  00000+0  35410-3 0  9998", "line2": "2 58662  97.4379 111.4008 0006392 213.5794 146.5043 15.31782357110719"}}, "geometry": {"type": "Point", "coordinates": [-65.82223569422095, 17.908784337426066]}}, {"type": "Feature", "properties": {"norad_id": 58663, "name": "TIANMU-1 22", "group": "weather", "lat": -78.52679843280178, "lon": 149.46258903879385, "alt_km": 488.51409869984946, "timestamp": "2025-12-24T07:45:05.842274+00:00", "meta": {"OBJECT_NAME": "TIANMU-1 22", "OBJECT_ID": "2023-208D", "EPOCH": "2025-12-23T22:40:31.354176", "MEAN_MOTION": 15.27785739, "ECCENTRICITY": 0.00029083, "INCLINATION": 97.4386, "RA_OF_ASC_NODE": 109.015, "ARG_OF_PERICENTER": 229.0803, "MEAN_ANOMALY": 131.0184, "EPHEMERIS_TYPE": 0, "CLASSIFICATION_TYPE": "U", "NORAD_CAT_ID": 58663, "ELEMENT_SET_NO": 999, "REV_AT_EPOCH": 11054, "BSTAR": 0.00032716665, "MEAN_MOTION_DOT": 8.807e-05, "MEAN_MOTION_DDOT": 0}, "tle": {"line1": "1 58663U 23208D   25357.94480734  .00008807  00000+0  32717-3 0  9999", "line2": "2 58663  97.4386 109.0150 0002908 229.0803 131.0184 15.27785739110549"}}, "geometry": {"type": "Point", "coordinates": [149.46258903879385, -78.52679843280178]}}, {"type": "Feature", "properties": {"norad_id": 58700, "name": "TIANMU-1 15", "group": "weather", "lat": -81.28063684644154, "lon": -121.52656419237717, "alt_km": 496.02530466861026, "timestamp": "2025-12-24T07:45:05.842285+00:00", "meta": {"OBJECT_NAME": "TIANMU-1 15", "OBJECT_ID": "2024-004A", "EPOCH": "2025-12-23T22:40:28.636032", "MEAN_MOTION": 15.24549104, "ECCENTRICITY": 0.00060388, "INCLINATION": 97.4626, "RA_OF_ASC_NODE": 179.3722, "ARG_OF_PERICENTER": 242.4566, "MEAN_ANOMALY": 117.6059, "EPHEMERIS_TYPE": 0, "CLASSIFICATION_TYPE": "U", "NORAD_CAT_ID": 58700, "ELEMENT_SET_NO": 999, "REV_AT_EPOCH": 10905, "BSTAR": 0.00028050433, "MEAN_MOTION_DOT": 6.837e-05, "MEAN_MOTION_DDOT": 0}, "tle": {"line1": "1 58700U 24004A   25357.94477588  .00006837  00000+0  28050-3 0  9995", "line2": "2 58700  97.4626 179.3722 0006038 242.4566 117.6059 15.24549104109052"}}, "geometry": {"type": "Point", "coordinates": [-121.52656419237717, -81.28063684644154]}}, {"type": "Feature", "properties": {"norad_id": 58701, "name": "TIANMU-1 16", "group": "weather", "lat": -2.933543174666137, "lon": 179.51293453853296, "alt_km": 496.707157015785, "timestamp": "2025-12-24T07:45:05.842295+00:00", "meta": {"OBJECT_NAME": "TIANMU-1 16", "OBJECT_ID": "2024-004B", "EPOCH": "2025-12-23T23:53:18.610656", "MEAN_MOTION": 15.24577568, "ECCENTRICITY": 0.00043798, "INCLINATION": 97.4567, "RA_OF_ASC_NODE": 178.8023, "ARG_OF_PERICENTER": 244.8282, "MEAN_ANOMALY": 115.2501, "EPHEMERIS_TYPE": 0, "CLASSIFICATION_TYPE": "U", "NORAD_CAT_ID": 58701, "ELEMENT_SET_NO": 999, "REV_AT_EPOCH": 10906, "BSTAR": 0.00030714787, "MEAN_MOTION_DOT": 7.499e-05, "MEAN_MOTION_DDOT": 0}, "tle": {"line1": "1 58701U 24004B   25357.99535429  .00007499  00000+0  30715-3 0  9996", "line2": "2 58701  97.4567 178.8023 0004379 244.8282 115.2501 15.24577568109064"}}, "geometry": {"type": "Point", "coordinates": [179.51293453853296, -2.933543174666137]}}, {"type": "Feature", "properties": {"norad_id": 58702, "name": "TIANMU-1 17", "group": "weather", "lat": 80.05781577712237, "lon": 131.1665579960596, "alt_km": 486.8365709464042, "timestamp": "2025-12-24T07:45:05.842305+00:00", "meta": {"OBJECT_NAME": "TIANMU-1 17", "OBJECT_ID": "2024-004C", "EPOCH": "2025-12-23T23:30:39.855744", "MEAN_MOTION": 15.24621333, "ECCENTRICITY": 0.00035498, "INCLINATION": 97.46, "RA_OF_ASC_NODE": 179.2025, "ARG_OF_PERICENTER": 245.7718, "MEAN_ANOMALY": 114.3149, "EPHEMERIS_TYPE": 0, "CLASSIFICATION_TYPE": "U", "NORAD_CAT_ID": 58702, "ELEMENT_SET_NO": 999, "REV_AT_EPOCH": 10905, "BSTAR": 0.00030310088, "MEAN_MOTION_DOT": 7.408e-05, "MEAN_MOTION_DDOT": 0}, "tle": {"line1": "1 58702U 24004C   25357.97962796  .00007408  00000+0  30310-3 0  9997", "line2": "2 58702  97.4600 179.2025 0003549 245.7718 114.3149 15.24621333109059"}}, "geometry": {"type": "Point", "coordinates": [131.1665579960596, 80.05781577712237]}}, {"type": "Feature", "properties": {"norad_id": 58703, "name": "TIANMU-1 18", "group": "weather", "lat": 5.51049857886231, "lon": 0.46666029887774735, "alt_km": 493.5277895598656, "timestamp": "2025-12-24T07:45:05.842315+00:00", "meta": {"OBJECT_NAME": "TIANMU-1 18", "OBJECT_ID": "2024-004D", "EPOCH": "2025-12-23T23:06:47.633184", "MEAN_MOTION": 15.24604539, "ECCENTRICITY": 0.00029232, "INCLINATION": 97.4617, "RA_OF_ASC_NODE": 179.3837, "ARG_OF_PERICENTER": 242.8206, "MEAN_ANOMALY": 117.2734, "EPHEMERIS_TYPE": 0, "CLASSIFICATION_TYPE": "U", "NORAD_CAT_ID": 58703, "ELEMENT_SET_NO": 999, "REV_AT_EPOCH": 10905, "BSTAR": 0.00027677072, "MEAN_MOTION_DOT": 6.754e-05, "MEAN_MOTION_DDOT": 0}, "tle": {"line1": "1 58703U 24004D   25357.96305131  .00006754  00000+0  27677-3 0  9996", "line2": "2 58703  97.4617 179.3837 0002923 242.8206 117.2734 15.24604539109056"}}, "geometry": {"type": "Point", "coordinates": [0.46666029887774735, 5.51049857886231]}}, {"type": "Feature", "properties": {"norad_id": 58990, "name": "INSAT-3DS", "group": "weather", "lat": -0.031658717765606345, "lon": -68.51945985461658, "alt_km": 35781.31798076718, "timestamp": "2025-12-24T07:45:05.842326+00:00", "meta": {"OBJECT_NAME": "INSAT-3DS", "OBJECT_ID": "2024-033A", "EPOCH": "2025-12-23T22:05:00.502080", "MEAN_MOTION": 1.0027149, "ECCENTRICITY": 0.00011976, "INCLINATION": 0.0581, "RA_OF_ASC_NODE": 100.0692, "ARG_OF_PERICENTER": 175.206, "MEAN_ANOMALY": 230.789, "EPHEMERIS_TYPE": 0, "CLASSIFICATION_TYPE": "U", "NORAD_CAT_ID": 58990, "ELEMENT_SET_NO": 999, "REV_AT_EPOCH": 4531, "BSTAR": 0, "MEAN_MOTION_DOT": -1.35e-06, "MEAN_MOTION_DDOT": 0}, "tle": {"line1": "1 58990U 24033A   25357.92014470 -.00000135  00000+0  00000+0 0  9990", "line2": "2 58990   0.0581 100.0692 0001197 175.2060 230.7890  1.00271490 45310"}}, "geometry": {"type": "Point", "coordinates": [-68.51945985461658, -0.031658717765606345]}}, {"type": "Feature", "properties": {"norad_id": 59051, "name": "METEOR-M2 4", "group": "weather", "lat": 56.27506519856537, "lon": -58.17502835136844, "alt_km": 812.097060769459, "timestamp": "2025-12-24T07:45:05.842337+00:00", "meta": {"OBJECT_NAME": "METEOR-M2 4", "OBJECT_ID": "2024-039A", "EPOCH": "2025-12-23T23:02:31.970400", "MEAN_MOTION": 14.22402916, "ECCENTRICITY": 0.00064522, "INCLINATION": 98.6783, "RA_OF_ASC_NODE": 314.6939, "ARG_OF_PERICENTER": 324.9413, "MEAN_ANOMALY": 35.1339, "EPHEMERIS_TYPE": 0, "CLASSIFICATION_TYPE": "U", "NORAD_CAT_ID": 59051, "ELEMENT_SET_NO": 999, "REV_AT_EPOCH": 9435, "BSTAR": 3.6439855e-05, "MEAN_MOTION_DOT": 3.7e-07, "MEAN_MOTION_DDOT": 0}, "tle": {"line1": "1 59051U 24039A   25357.96009225  .00000037  00000+0  36440-4 0  9993", "line2": "2 59051  98.6783 314.6939 0006452 324.9413  35.1339 14.22402916 94357"}}, "geometry": {"type": "Point", "coordinates": [-58.17502835136844, 56.27506519856537]}}, {"type": "Feature", "properties": {"norad_id": 60133, "name": "GOES 19", "group": "weather", "lat": -0.002169537422600568, "lon": 134.18679241268768, "alt_km": 35790.3485611283, "timestamp": "2025-12-24T07:45:05.842387+00:00", "meta": {"OBJECT_NAME": "GOES 19", "OBJECT_ID": "2024-119A", "EPOCH": "2025-12-23T12:46:25.910976", "MEAN_MOTION": 1.0027184, "ECCENTRICITY": 0.00010115, "INCLINATION": 0.0202, "RA_OF_ASC_NODE": 184.8401, "ARG_OF_PERICENTER": 138.5806, "MEAN_ANOMALY": 245.325, "EPHEMERIS_TYPE": 0, "CLASSIFICATION_TYPE": "U", "NORAD_CAT_ID": 60133, "ELEMENT_SET_NO": 999, "REV_AT_EPOCH": 520, "BSTAR": 0, "MEAN_MOTION_DOT": -2.27e-06, "MEAN_MOTION_DDOT": 0}, "tle": {"line1": "1 60133U 24119A   25357.53224434 -.00000227  00000+0  00000+0 0  9999", "line2": "2 60133   0.0202 184.8401 0001011 138.5806 245.3250  1.00271840  5200"}}, "geometry": {"type": "Point", "coordinates": [134.18679241268768, -0.002169537422600568]}}, {"type": "Feature", "properties": {"norad_id": 65815, "name": "FENGYUN 3H", "group": "weather", "lat": -12.196006209460974, "lon": 115.77492273523154, "alt_km": 829.9780806659674, "timestamp": "2025-12-24T07:45:05.842404+00:00", "meta": {"OBJECT_NAME": "FENGYUN 3H", "OBJECT_ID": "2025-219A", "EPOCH": "2025-12-23T22:23:35.582208", "MEAN_MOTION": 14.19907546, "ECCENTRICITY": 8.023e-05, "INCLINATION": 98.66, "RA_OF_ASC_NODE": 297.2811, "ARG_OF_PERICENTER": 108.0468, "MEAN_ANOMALY": 252.0796, "EPHEMERIS_TYPE": 0, "CLASSIFICATION_TYPE": "U", "NORAD_CAT_ID": 65815, "ELEMENT_SET_NO": 999, "REV_AT_EPOCH": 1251, "BSTAR": 6.6399492e-05, "MEAN_MOTION_DOT": 9.8e-07, "MEAN_MOTION_DDOT": 0}, "tle": {"line1": "1 65815U 25219A   25357.93305072  .00000098  00000+0  66399-4 0  9998", "line2": "2 65815  98.6600 297.2811 0000802 108.0468 252.0796 14.19907546 12519"}}, "geometry": {"type": "Point", "coordinates": [115.77492273523154, -12.196006209460974]}}]}